start=new Date('2023-05-03T00:00:00.000Z').valueOf();
sats=[{"TLE_LINE2":"2 52687  53.2150 142.9678 0001457  71.9345 288.1806 15.08845998 53771","EPHEMERIS_TYPE":"0","SITE":"AFETR","GP_ID":"231094022","ARG_OF_PERICENTER":"71.9345","MEAN_ANOMALY":"288.1806","RA_OF_ASC_NODE":"142.9678","DECAY_DATE":null,"LAUNCH_DATE":"2022-05-18","PERIOD":"95.437","COUNTRY_CODE":"US","CLASSIFICATION_TYPE":"U","NORAD_CAT_ID":"52687","REF_FRAME":"TEME","BSTAR":"0.00021469000000","MEAN_ELEMENT_THEORY":"SGP4","MEAN_MOTION_DDOT":"0.0000000000000","OBJECT_NAME":"STARLINK-3981","MEAN_MOTION":"15.08845998","OBJECT_ID":"2022-053AH","RCS_SIZE":"LARGE","MEAN_MOTION_DOT":"0.00003131","TIME_SYSTEM":"UTC","SEMIMAJOR_AXIS":"6917.862","CENTER_NAME":"EARTH","TLE_LINE1":"1 52687U 22053AH  23122.43773774  .00003131  00000-0  21469-3 0  9995","INCLINATION":"53.2150","REV_AT_EPOCH":"5377","ELEMENT_SET_NO":"999","FILE":"3899068","PERIAPSIS":"538.719","APOAPSIS":"540.735","EPOCH":"2023-05-02T10:30:20.540736","ECCENTRICITY":"0.00014570","OBJECT_TYPE":"PAYLOAD"},{"APOAPSIS":"535.565","EPOCH":"2023-05-02T10:27:35.772480","PERIAPSIS":"533.899","ECCENTRICITY":"0.00012050","OBJECT_TYPE":"PAYLOAD","TIME_SYSTEM":"UTC","SEMIMAJOR_AXIS":"6912.867","CENTER_NAME":"EARTH","REV_AT_EPOCH":"5377","INCLINATION":"53.2160","ELEMENT_SET_NO":"999","FILE":"3899068","TLE_LINE1":"1 52688U 22053AJ  23122.43583070  .00001859  00000-0  12917-3 0  9997","MEAN_MOTION":"15.10481583","OBJECT_ID":"2022-053AJ","MEAN_MOTION_DDOT":"0.0000000000000","OBJECT_NAME":"STARLINK-4032","MEAN_MOTION_DOT":"0.00001859","RCS_SIZE":"LARGE","ARG_OF_PERICENTER":"90.4854","GP_ID":"231092771","SITE":"AFETR","TLE_LINE2":"2 52688  53.2160 142.8833 0001205  90.4854 269.6277 15.10481583 53772","EPHEMERIS_TYPE":"0","NORAD_CAT_ID":"52688","CLASSIFICATION_TYPE":"U","REF_FRAME":"TEME","BSTAR":"0.00012917000000","MEAN_ELEMENT_THEORY":"SGP4","MEAN_ANOMALY":"269.6277","DECAY_DATE":null,"LAUNCH_DATE":"2022-05-18","RA_OF_ASC_NODE":"142.8833","PERIOD":"95.334","COUNTRY_CODE":"US"},{"REF_FRAME":"TEME","MEAN_ELEMENT_THEORY":"SGP4","BSTAR":"0.00013779000000","NORAD_CAT_ID":"52689","CLASSIFICATION_TYPE":"U","COUNTRY_CODE":"US","MEAN_ANOMALY":"286.3529","DECAY_DATE":null,"LAUNCH_DATE":"2022-05-18","PERIOD":"95.437","RA_OF_ASC_NODE":"142.7203","GP_ID":"231093021","ARG_OF_PERICENTER":"73.7631","SITE":"AFETR","TLE_LINE2":"2 52689  53.2155 142.7203 0001526  73.7631 286.3529 15.08843151 53811","EPHEMERIS_TYPE":"0","MEAN_MOTION_DOT":"0.00001906","RCS_SIZE":"LARGE","MEAN_MOTION":"15.08843151","OBJECT_ID":"2022-053AK","OBJECT_NAME":"STARLINK-4078","MEAN_MOTION_DDOT":"0.0000000000000","FILE":"3899068","INCLINATION":"53.2155","REV_AT_EPOCH":"5381","ELEMENT_SET_NO":"999","TLE_LINE1":"1 52689U 22053AK  23122.49293756  .00001906  00000-0  13779-3 0  9993","SEMIMAJOR_AXIS":"6917.871","CENTER_NAME":"EARTH","TIME_SYSTEM":"UTC","OBJECT_TYPE":"PAYLOAD","ECCENTRICITY":"0.00015260","EPOCH":"2023-05-02T11:49:49.805184","APOAPSIS":"540.791","PERIAPSIS":"538.680"},{"OBJECT_TYPE":"PAYLOAD","ECCENTRICITY":"0.00013230","EPOCH":"2023-05-02T13:51:42.549120","APOAPSIS":"540.641","PERIAPSIS":"538.811","FILE":"3899277","ELEMENT_SET_NO":"999","REV_AT_EPOCH":"5379","INCLINATION":"53.2166","TLE_LINE1":"1 52690U 22053AL  23122.57757580  .00001954  00000-0  14077-3 0  9999","CENTER_NAME":"EARTH","SEMIMAJOR_AXIS":"6917.861","TIME_SYSTEM":"UTC","MEAN_MOTION_DOT":"0.00001954","RCS_SIZE":"LARGE","OBJECT_ID":"2022-053AL","MEAN_MOTION":"15.08846342","OBJECT_NAME":"STARLINK-4035","MEAN_MOTION_DDOT":"0.0000000000000","MEAN_ELEMENT_THEORY":"SGP4","BSTAR":"0.00014077000000","REF_FRAME":"TEME","NORAD_CAT_ID":"52690","CLASSIFICATION_TYPE":"U","COUNTRY_CODE":"US","RA_OF_ASC_NODE":"142.3375","DECAY_DATE":null,"LAUNCH_DATE":"2022-05-18","PERIOD":"95.437","MEAN_ANOMALY":"275.7915","ARG_OF_PERICENTER":"84.3228","GP_ID":"231124221","TLE_LINE2":"2 52690  53.2166 142.3375 0001323  84.3228 275.7915 15.08846342 53799","SITE":"AFETR","EPHEMERIS_TYPE":"0"},{"TLE_LINE1":"1 52691U 22053AM  23122.48925793  .00000854  00000-0  71773-4 0  9998","ELEMENT_SET_NO":"999","INCLINATION":"53.2178","REV_AT_EPOCH":"5381","FILE":"3899068","TIME_SYSTEM":"UTC","CENTER_NAME":"EARTH","SEMIMAJOR_AXIS":"6917.877","ECCENTRICITY":"0.00017990","OBJECT_TYPE":"PAYLOAD","PERIAPSIS":"538.498","APOAPSIS":"540.987","EPOCH":"2023-05-02T11:44:31.885152","LAUNCH_DATE":"2022-05-18","DECAY_DATE":null,"RA_OF_ASC_NODE":"142.7421","PERIOD":"95.437","MEAN_ANOMALY":"274.5392","COUNTRY_CODE":"US","CLASSIFICATION_TYPE":"U","NORAD_CAT_ID":"52691","MEAN_ELEMENT_THEORY":"SGP4","BSTAR":"0.00007177300000","REF_FRAME":"TEME","TLE_LINE2":"2 52691  53.2178 142.7421 0001799  85.5806 274.5392 15.08841036 53815","SITE":"AFETR","EPHEMERIS_TYPE":"0","ARG_OF_PERICENTER":"85.5806","GP_ID":"231094522","RCS_SIZE":"LARGE","MEAN_MOTION_DOT":"0.00000854","MEAN_MOTION_DDOT":"0.0000000000000","OBJECT_NAME":"STARLINK-3945","OBJECT_ID":"2022-053AM","MEAN_MOTION":"15.08841036"},{"CENTER_NAME":"EARTH","SEMIMAJOR_AXIS":"6917.868","TIME_SYSTEM":"UTC","FILE":"3899068","ELEMENT_SET_NO":"999","REV_AT_EPOCH":"5381","INCLINATION":"53.2156","TLE_LINE1":"1 52692U 22053AN  23122.50029736  .00001763  00000-0  12881-3 0  9998","EPOCH":"2023-05-02T12:00:25.691904","APOAPSIS":"540.617","PERIAPSIS":"538.848","OBJECT_TYPE":"PAYLOAD","ECCENTRICITY":"0.00012780","GP_ID":"231093272","ARG_OF_PERICENTER":"104.7252","TLE_LINE2":"2 52692  53.2156 142.6892 0001278 104.7252 255.3882 15.08844203 53814","SITE":"AFETR","EPHEMERIS_TYPE":"0","BSTAR":"0.00012881000000","MEAN_ELEMENT_THEORY":"SGP4","REF_FRAME":"TEME","CLASSIFICATION_TYPE":"U","NORAD_CAT_ID":"52692","COUNTRY_CODE":"US","DECAY_DATE":null,"PERIOD":"95.437","LAUNCH_DATE":"2022-05-18","RA_OF_ASC_NODE":"142.6892","MEAN_ANOMALY":"255.3882","OBJECT_ID":"2022-053AN","MEAN_MOTION":"15.08844203","OBJECT_NAME":"STARLINK-3993","MEAN_MOTION_DDOT":"0.0000000000000","RCS_SIZE":"LARGE","MEAN_MOTION_DOT":"0.00001763"},{"SEMIMAJOR_AXIS":"6917.867","CENTER_NAME":"EARTH","TIME_SYSTEM":"UTC","TLE_LINE1":"1 52693U 22053AP  23122.48189532  .00001935  00000-0  13959-3 0  9995","FILE":"3899068","REV_AT_EPOCH":"5381","INCLINATION":"53.2147","ELEMENT_SET_NO":"999","PERIAPSIS":"538.851","EPOCH":"2023-05-02T11:33:55.755648","APOAPSIS":"540.612","OBJECT_TYPE":"PAYLOAD","ECCENTRICITY":"0.00012730","TLE_LINE2":"2 52693  53.2147 142.7714 0001273  92.3864 267.7274 15.08844451 53812","EPHEMERIS_TYPE":"0","SITE":"AFETR","GP_ID":"231093522","ARG_OF_PERICENTER":"92.3864","COUNTRY_CODE":"US","MEAN_ANOMALY":"267.7274","DECAY_DATE":null,"RA_OF_ASC_NODE":"142.7714","LAUNCH_DATE":"2022-05-18","PERIOD":"95.437","REF_FRAME":"TEME","BSTAR":"0.00013959000000","MEAN_ELEMENT_THEORY":"SGP4","NORAD_CAT_ID":"52693","CLASSIFICATION_TYPE":"U","OBJECT_NAME":"STARLINK-3946","MEAN_MOTION_DDOT":"0.0000000000000","MEAN_MOTION":"15.08844451","OBJECT_ID":"2022-053AP","MEAN_MOTION_DOT":"0.00001935","RCS_SIZE":"LARGE"},{"ARG_OF_PERICENTER":"66.9426","GP_ID":"231093773","EPHEMERIS_TYPE":"0","TLE_LINE2":"2 52694  53.2165 142.7052 0001515  66.9426 293.1726 15.08832702 53819","SITE":"AFETR","CLASSIFICATION_TYPE":"U","NORAD_CAT_ID":"52694","MEAN_ELEMENT_THEORY":"SGP4","BSTAR":"0.00010642000000","REF_FRAME":"TEME","LAUNCH_DATE":"2022-05-18","DECAY_DATE":null,"RA_OF_ASC_NODE":"142.7052","PERIOD":"95.438","MEAN_ANOMALY":"293.1726","COUNTRY_CODE":"US","OBJECT_ID":"2022-053AQ","MEAN_MOTION":"15.08832702","MEAN_MOTION_DDOT":"0.0000000000000","OBJECT_NAME":"STARLINK-4072","MEAN_MOTION_DOT":"0.00001406","RCS_SIZE":"LARGE","TIME_SYSTEM":"UTC","CENTER_NAME":"EARTH","SEMIMAJOR_AXIS":"6917.903","ELEMENT_SET_NO":"999","INCLINATION":"53.2165","REV_AT_EPOCH":"5381","FILE":"3899068","TLE_LINE1":"1 52694U 22053AQ  23122.49663355  .00001406  00000-0  10642-3 0  9996","APOAPSIS":"540.816","EPOCH":"2023-05-02T11:55:09.138720","PERIAPSIS":"538.720","ECCENTRICITY":"0.00015150","OBJECT_TYPE":"PAYLOAD"},{"OBJECT_NAME":"STARLINK-4041","MEAN_MOTION_DDOT":"0.0000000000000","OBJECT_ID":"2022-053AR","MEAN_MOTION":"15.08849294","MEAN_MOTION_DOT":"0.00004131","RCS_SIZE":"LARGE","EPHEMERIS_TYPE":"0","TLE_LINE2":"2 52695  53.2153 147.3273 0002130  71.6847 288.4376 15.08849294 53358","SITE":"AFETR","ARG_OF_PERICENTER":"71.6847","GP_ID":"231098591","COUNTRY_CODE":"US","RA_OF_ASC_NODE":"147.3273","DECAY_DATE":null,"LAUNCH_DATE":"2022-05-18","PERIOD":"95.437","MEAN_ANOMALY":"288.4376","MEAN_ELEMENT_THEORY":"SGP4","BSTAR":"0.00027746000000","REF_FRAME":"TEME","NORAD_CAT_ID":"52695","CLASSIFICATION_TYPE":"U","PERIAPSIS":"538.243","EPOCH":"2023-05-02T12:50:04.358688","APOAPSIS":"541.190","OBJECT_TYPE":"PAYLOAD","ECCENTRICITY":"0.00021300","CENTER_NAME":"EARTH","SEMIMAJOR_AXIS":"6917.852","TIME_SYSTEM":"UTC","TLE_LINE1":"1 52695U 22053AR  23122.53477267  .00004131  00000-0  27746-3 0  9998","FILE":"3899150","ELEMENT_SET_NO":"999","REV_AT_EPOCH":"5335","INCLINATION":"53.2153"},{"CENTER_NAME":"EARTH","SEMIMAJOR_AXIS":"6917.876","TIME_SYSTEM":"UTC","FILE":"3899277","ELEMENT_SET_NO":"999","INCLINATION":"53.2159","REV_AT_EPOCH":"5382","TLE_LINE1":"1 52696U 22053AS  23122.55181674  .00001268  00000-0  97762-4 0  9999","EPOCH":"2023-05-02T13:14:36.966336","APOAPSIS":"540.773","PERIAPSIS":"538.710","OBJECT_TYPE":"PAYLOAD","ECCENTRICITY":"0.00014910","GP_ID":"231125222","ARG_OF_PERICENTER":"92.4270","SITE":"AFETR","TLE_LINE2":"2 52696  53.2159 142.4575 0001491  92.4270 267.6893 15.08841329 53822","EPHEMERIS_TYPE":"0","MEAN_ELEMENT_THEORY":"SGP4","BSTAR":"0.00009776200000","REF_FRAME":"TEME","CLASSIFICATION_TYPE":"U","NORAD_CAT_ID":"52696","COUNTRY_CODE":"US","PERIOD":"95.437","DECAY_DATE":null,"LAUNCH_DATE":"2022-05-18","RA_OF_ASC_NODE":"142.4575","MEAN_ANOMALY":"267.6893","OBJECT_ID":"2022-053AS","MEAN_MOTION":"15.08841329","OBJECT_NAME":"STARLINK-4025","MEAN_MOTION_DDOT":"0.0000000000000","RCS_SIZE":"LARGE","MEAN_MOTION_DOT":"0.00001268"}];
